0 BREEZE-M DEB
1 32026U 06006D   13281.90784919  .00008748  00000-0  19104-1 0  8562
2 32026 050.9131 084.4192 4682712 255.7798 052.7547 05.82725139135433
0 BREEZE-M DEB
1 32026U 06006D   13283.97086948  .00009782  00000-0  21034-1 0  8573
2 32026 050.9135 082.6894 4684141 257.1255 060.6341 05.82751461135558
0 BREEZE-M DEB
1 32026U 06006D   13285.80572116  .00009491  00000-0  20129-1 0  8586
2 32026 050.9124 081.1492 4685391 258.3235 310.0591 05.82771982135664
0 BREEZE-M DEB
1 32026U 06006D   13286.84423602  .00011336  00000-0  23846-1 0  8597
2 32026 050.9139 080.2779 4686136 258.9997 328.9139 05.82785355135729
0 BREEZE-M DEB
1 32026U 06006D   13288.42953394  .00013583  00000-0  28162-1 0  8603
2 32026 050.9139 078.9473 4687253 260.0515 054.9928 05.82845106135818
0 BREEZE-M DEB
1 32026U 06006D   13289.97344963  .00012831  00000-0  26462-1 0  8617
2 32026 050.9137 077.6466 4687634 261.0603 054.5618 05.82878347135901
0 BREEZE-M DEB
1 32026U 06006D   13291.34313955  .00013973  00000-0  28522-1 0  8626
2 32026 050.9136 076.4954 4688569 261.9549 048.7550 05.82908562135986
0 BREEZE-M DEB
1 32026U 06006D   13292.84742242  .00018201  00000-0  36128-1 0  8638
2 32026 050.9125 075.2367 4691287 262.9200 325.6450 05.82938414136071
0 BREEZE-M DEB
1 32026U 06006D   13293.40329566  .00018287  00000-0  35817-1 0  8640
2 32026 050.9138 074.7744 4692481 263.2981 052.1819 05.82966852136107
0 BREEZE-M DEB
1 32026U 06006D   13293.87539228  .00017600  00000-0  34268-1 0  8657
2 32026 050.9139 074.3779 4692923 263.6235 322.9270 05.82994786136138
0 BREEZE-M DEB
1 32026U 06006D   13294.90737500  .00019121  00000-0  36955-1 0  8661
2 32026 050.9131 073.5079 4693519 264.3023 328.8556 05.83019784136194
0 BREEZE-M DEB
1 32026U 06006D   13295.75806602  .00018066  00000-0  34575-1 0  8679
2 32026 050.9132 072.7925 4694271 264.8727 314.3108 05.83059108136241
